[{"OBJECT_NAME":"HULIANWANG DIGUI-65","OBJECT_ID":"2025-174H","EPOCH":"2026-03-03T18:51:49.853952","MEAN_MOTION":13.24422092,"ECCENTRICITY":0.0001212,"INCLINATION":86.4847,"RA_OF_ASC_NODE":287.5134,"ARG_OF_PERICENTER":86.6636,"MEAN_ANOMALY":273.4636,"EPHEMERIS_TYPE":0,"CLASSIFICATION_TYPE":"U","NORAD_CAT_ID":65171,"ELEMENT_SET_NO":999,"REV_AT_EPOCH":2683,"BSTAR":0.00014844,"MEAN_MOTION_DOT":7.8e-7,"MEAN_MOTION_DDOT":0},{"OBJECT_NAME":"HULIANWANG DIGUI-66","OBJECT_ID":"2025-174J","EPOCH":"2026-03-03T18:40:59.236896","MEAN_MOTION":13.24421695,"ECCENTRICITY":0.0001247,"INCLINATION":86.4882,"RA_OF_ASC_NODE":287.5816,"ARG_OF_PERICENTER":88.9589,"MEAN_ANOMALY":271.1688,"EPHEMERIS_TYPE":0,"CLASSIFICATION_TYPE":"U","NORAD_CAT_ID":65172,"ELEMENT_SET_NO":999,"REV_AT_EPOCH":2683,"BSTAR":0.00010343,"MEAN_MOTION_DOT":5.9e-7,"MEAN_MOTION_DDOT":0},{"OBJECT_NAME":"HULIANWANG DIGUI-67","OBJECT_ID":"2025-174K","EPOCH":"2026-03-03T19:02:47.370048","MEAN_MOTION":13.24421367,"ECCENTRICITY":0.0001244,"INCLINATION":86.4894,"RA_OF_ASC_NODE":287.6099,"ARG_OF_PERICENTER":87.175,"MEAN_ANOMALY":272.9526,"EPHEMERIS_TYPE":0,"CLASSIFICATION_TYPE":"U","NORAD_CAT_ID":65173,"ELEMENT_SET_NO":999,"REV_AT_EPOCH":2680,"BSTAR":0.00015979,"MEAN_MOTION_DOT":8.3e-7,"MEAN_MOTION_DDOT":0},{"OBJECT_NAME":"HULIANWANG DIGUI-68","OBJECT_ID":"2025-178A","EPOCH":"2026-03-03T19:35:13.708896","MEAN_MOTION":13.24423698,"ECCENTRICITY":0.0002042,"INCLINATION":86.4937,"RA_OF_ASC_NODE":49.079,"ARG_OF_PERICENTER":80.8202,"MEAN_ANOMALY":279.3163,"EPHEMERIS_TYPE":0,"CLASSIFICATION_TYPE":"U","NORAD_CAT_ID":65228,"ELEMENT_SET_NO":999,"REV_AT_EPOCH":2636,"BSTAR":5.8988e-5,"MEAN_MOTION_DOT":4.0e-7,"MEAN_MOTION_DDOT":0},{"OBJECT_NAME":"HULIANWANG DIGUI-69","OBJECT_ID":"2025-178B","EPOCH":"2026-03-03T19:24:47.193984","MEAN_MOTION":13.24417493,"ECCENTRICITY":0.0001974,"INCLINATION":86.4957,"RA_OF_ASC_NODE":49.1161,"ARG_OF_PERICENTER":82.1152,"MEAN_ANOMALY":278.0206,"EPHEMERIS_TYPE":0,"CLASSIFICATION_TYPE":"U","NORAD_CAT_ID":65229,"ELEMENT_SET_NO":999,"REV_AT_EPOCH":2636,"BSTAR":1.2578e-5,"MEAN_MOTION_DOT":2.0e-7,"MEAN_MOTION_DDOT":0},{"OBJECT_NAME":"HULIANWANG DIGUI-70","OBJECT_ID":"2025-178C","EPOCH":"2026-03-03T19:13:50.768256","MEAN_MOTION":13.244185,"ECCENTRICITY":0.0002075,"INCLINATION":86.4896,"RA_OF_ASC_NODE":48.9885,"ARG_OF_PERICENTER":80.986,"MEAN_ANOMALY":279.1509,"EPHEMERIS_TYPE":0,"CLASSIFICATION_TYPE":"U","NORAD_CAT_ID":65230,"ELEMENT_SET_NO":999,"REV_AT_EPOCH":2636,"BSTAR":1.7308e-5,"MEAN_MOTION_DOT":2.2e-7,"MEAN_MOTION_DDOT":0},{"OBJECT_NAME":"HULIANWANG DIGUI-71","OBJECT_ID":"2025-178D","EPOCH":"2026-03-03T19:02:55.954752","MEAN_MOTION":13.24419444,"ECCENTRICITY":0.0002015,"INCLINATION":86.4955,"RA_OF_ASC_NODE":49.1044,"ARG_OF_PERICENTER":81.9274,"MEAN_ANOMALY":278.2089,"EPHEMERIS_TYPE":0,"CLASSIFICATION_TYPE":"U","NORAD_CAT_ID":65231,"ELEMENT_SET_NO":999,"REV_AT_EPOCH":2636,"BSTAR":1.7812e-5,"MEAN_MOTION_DOT":2.2e-7,"MEAN_MOTION_DDOT":0},{"OBJECT_NAME":"HULIANWANG DIGUI-72","OBJECT_ID":"2025-178E","EPOCH":"2026-03-03T18:51:59.597280","MEAN_MOTION":13.24419959,"ECCENTRICITY":0.0002008,"INCLINATION":86.4938,"RA_OF_ASC_NODE":49.0652,"ARG_OF_PERICENTER":82.9011,"MEAN_ANOMALY":277.2351,"EPHEMERIS_TYPE":0,"CLASSIFICATION_TYPE":"U","NORAD_CAT_ID":65232,"ELEMENT_SET_NO":999,"REV_AT_EPOCH":2636,"BSTAR":1.8015e-5,"MEAN_MOTION_DOT":2.2e-7,"MEAN_MOTION_DDOT":0},{"OBJECT_NAME":"HULIANWANG DIGUI-73","OBJECT_ID":"2025-187A","EPOCH":"2026-03-03T19:27:34.975008","MEAN_MOTION":13.29342329,"ECCENTRICITY":0.0001055,"INCLINATION":50.0036,"RA_OF_ASC_NODE":223.8049,"ARG_OF_PERICENTER":133.241,"MEAN_ANOMALY":226.855,"EPHEMERIS_TYPE":0,"CLASSIFICATION_TYPE":"U","NORAD_CAT_ID":65305,"ELEMENT_SET_NO":999,"REV_AT_EPOCH":2568,"BSTAR":5.8276e-5,"MEAN_MOTION_DOT":-9.7e-7,"MEAN_MOTION_DDOT":0},{"OBJECT_NAME":"HULIANWANG DIGUI-74","OBJECT_ID":"2025-187B","EPOCH":"2026-03-03T19:03:29.988576","MEAN_MOTION":13.29342832,"ECCENTRICITY":0.0001047,"INCLINATION":50.0079,"RA_OF_ASC_NODE":223.7839,"ARG_OF_PERICENTER":134.2038,"MEAN_ANOMALY":225.8921,"EPHEMERIS_TYPE":0,"CLASSIFICATION_TYPE":"U","NORAD_CAT_ID":65306,"ELEMENT_SET_NO":999,"REV_AT_EPOCH":2568,"BSTAR":4.8842e-5,"MEAN_MOTION_DOT":-1.01e-6,"MEAN_MOTION_DDOT":0},{"OBJECT_NAME":"HULIANWANG DIGUI-75","OBJECT_ID":"2025-187C","EPOCH":"2026-03-03T18:39:31.780224","MEAN_MOTION":13.29341874,"ECCENTRICITY":0.0001046,"INCLINATION":50.0071,"RA_OF_ASC_NODE":223.6855,"ARG_OF_PERICENTER":133.0437,"MEAN_ANOMALY":227.0523,"EPHEMERIS_TYPE":0,"CLASSIFICATION_TYPE":"U","NORAD_CAT_ID":65307,"ELEMENT_SET_NO":999,"REV_AT_EPOCH":2568,"BSTAR":2.2987e-5,"MEAN_MOTION_DOT":-1.13e-6,"MEAN_MOTION_DDOT":0},{"OBJECT_NAME":"HULIANWANG DIGUI-76","OBJECT_ID":"2025-187D","EPOCH":"2026-03-03T18:15:44.491968","MEAN_MOTION":13.29339193,"ECCENTRICITY":0.0001039,"INCLINATION":49.9995,"RA_OF_ASC_NODE":224.1393,"ARG_OF_PERICENTER":130.409,"MEAN_ANOMALY":229.6873,"EPHEMERIS_TYPE":0,"CLASSIFICATION_TYPE":"U","NORAD_CAT_ID":65308,"ELEMENT_SET_NO":999,"REV_AT_EPOCH":2567,"BSTAR":3.3481e-5,"MEAN_MOTION_DOT":-1.09e-6,"MEAN_MOTION_DDOT":0},{"OBJECT_NAME":"HULIANWANG DIGUI-77","OBJECT_ID":"2025-187E","EPOCH":"2026-03-03T18:03:30.217248","MEAN_MOTION":13.29341096,"ECCENTRICITY":0.0001077,"INCLINATION":50.003,"RA_OF_ASC_NODE":224.1486,"ARG_OF_PERICENTER":131.216,"MEAN_ANOMALY":228.8805,"EPHEMERIS_TYPE":0,"CLASSIFICATION_TYPE":"U","NORAD_CAT_ID":65309,"ELEMENT_SET_NO":999,"REV_AT_EPOCH":2567,"BSTAR":4.124e-5,"MEAN_MOTION_DOT":-1.05e-6,"MEAN_MOTION_DDOT":0},{"OBJECT_NAME":"HULIANWANG DIGUI-78","OBJECT_ID":"2025-187F","EPOCH":"2026-03-03T18:51:36.849024","MEAN_MOTION":13.29341647,"ECCENTRICITY":0.000103,"INCLINATION":50.0095,"RA_OF_ASC_NODE":223.7667,"ARG_OF_PERICENTER":134.6041,"MEAN_ANOMALY":225.4916,"EPHEMERIS_TYPE":0,"CLASSIFICATION_TYPE":"U","NORAD_CAT_ID":65310,"ELEMENT_SET_NO":999,"REV_AT_EPOCH":2568,"BSTAR":7.4174e-5,"MEAN_MOTION_DOT":-9.0e-7,"MEAN_MOTION_DDOT":0},{"OBJECT_NAME":"HULIANWANG DIGUI-79","OBJECT_ID":"2025-187G","EPOCH":"2026-03-03T18:27:20.291040","MEAN_MOTION":13.29343026,"ECCENTRICITY":0.0001045,"INCLINATION":50.0024,"RA_OF_ASC_NODE":224.2267,"ARG_OF_PERICENTER":131.3333,"MEAN_ANOMALY":228.763,"EPHEMERIS_TYPE":0,"CLASSIFICATION_TYPE":"U","NORAD_CAT_ID":65311,"ELEMENT_SET_NO":999,"REV_AT_EPOCH":2567,"BSTAR":2.8179e-5,"MEAN_MOTION_DOT":-1.11e-6,"MEAN_MOTION_DDOT":0},{"OBJECT_NAME":"HULIANWANG DIGUI-80","OBJECT_ID":"2025-187H","EPOCH":"2026-03-03T19:39:41.338944","MEAN_MOTION":13.2934112,"ECCENTRICITY":0.0001068,"INCLINATION":50.0015,"RA_OF_ASC_NODE":223.814,"ARG_OF_PERICENTER":130.2581,"MEAN_ANOMALY":229.8384,"EPHEMERIS_TYPE":0,"CLASSIFICATION_TYPE":"U","NORAD_CAT_ID":65312,"ELEMENT_SET_NO":999,"REV_AT_EPOCH":2568,"BSTAR":5.4948e-5,"MEAN_MOTION_DOT":-9.9e-7,"MEAN_MOTION_DDOT":0}]
