HULIANWANG DIGUI-65     
1 65171U 25174H   26062.78599368  .00000078  00000+0  14844-3 0  9998
2 65171  86.4847 287.5134 0001212  86.6636 273.4636 13.24422092 26839
HULIANWANG DIGUI-66     
1 65172U 25174J   26062.77846339  .00000059  00000+0  10343-3 0  9990
2 65172  86.4882 287.5816 0001247  88.9589 271.1688 13.24421695 26836
HULIANWANG DIGUI-67     
1 65173U 25174K   26062.79360382  .00000083  00000+0  15979-3 0  9999
2 65173  86.4894 287.6099 0001244  87.1750 272.9526 13.24421367 26805
HULIANWANG DIGUI-68     
1 65228U 25178A   26062.81613089  .00000040  00000+0  58988-4 0  9993
2 65228  86.4937  49.0790 0002042  80.8202 279.3163 13.24423698 26369
HULIANWANG DIGUI-69     
1 65229U 25178B   26062.80887956  .00000020  00000+0  12578-4 0  9992
2 65229  86.4957  49.1161 0001974  82.1152 278.0206 13.24417493 26367
HULIANWANG DIGUI-70     
1 65230U 25178C   26062.80128204  .00000022  00000+0  17308-4 0  9996
2 65230  86.4896  48.9885 0002075  80.9860 279.1509 13.24418500 26364
HULIANWANG DIGUI-71     
1 65231U 25178D   26062.79370318  .00000022  00000+0  17812-4 0  9990
2 65231  86.4955  49.1044 0002015  81.9274 278.2089 13.24419444 26366
HULIANWANG DIGUI-72     
1 65232U 25178E   26062.78610645  .00000022  00000+0  18015-4 0  9996
2 65232  86.4938  49.0652 0002008  82.9011 277.2351 13.24419959 26366
HULIANWANG DIGUI-73     
1 65305U 25187A   26062.81082147 -.00000097  00000+0  58276-4 0  9997
2 65305  50.0036 223.8049 0001055 133.2410 226.8550 13.29342329 25685
HULIANWANG DIGUI-74     
1 65306U 25187B   26062.79409709 -.00000101  00000+0  48842-4 0  9996
2 65306  50.0079 223.7839 0001047 134.2038 225.8921 13.29342832 25687
HULIANWANG DIGUI-75     
1 65307U 25187C   26062.77745116 -.00000113  00000+0  22987-4 0  9995
2 65307  50.0071 223.6855 0001046 133.0437 227.0523 13.29341874 25683
HULIANWANG DIGUI-76     
1 65308U 25187D   26062.76093162 -.00000109  00000+0  33481-4 0  9998
2 65308  49.9995 224.1393 0001039 130.4090 229.6873 13.29339193 25673
HULIANWANG DIGUI-77     
1 65309U 25187E   26062.75243307 -.00000105  00000+0  41240-4 0  9994
2 65309  50.0030 224.1486 0001077 131.2160 228.8805 13.29341096 25670
HULIANWANG DIGUI-78     
1 65310U 25187F   26062.78584316 -.00000090  00000+0  74174-4 0  9992
2 65310  50.0095 223.7667 0001030 134.6041 225.4916 13.29341647 25682
HULIANWANG DIGUI-79     
1 65311U 25187G   26062.76898485 -.00000111  00000+0  28179-4 0  9994
2 65311  50.0024 224.2267 0001045 131.3333 228.7630 13.29343026 25672
HULIANWANG DIGUI-80     
1 65312U 25187H   26062.81922846 -.00000099  00000+0  54948-4 0  9998
2 65312  50.0015 223.8140 0001068 130.2581 229.8384 13.29341120 25688
